ONEWEB-0283             
1 49001U 21060AL  24215.87268369  .00000066  00000+0  13921-3 0  9996
2 49001  87.9129   4.8351 0001618  87.5520 272.5796 13.16593275149707
ONEWEB-0284             
1 49002U 21060AM  24215.94234615  .00000079  00000+0  17347-3 0  9992
2 49002  87.9122   4.8021 0001592  99.3887 260.7424 13.16595674149693
ONEWEB-0285             
1 49075U 21075A   24215.82281743  .00000475  00000+0  12860-2 0  9993
2 49075  87.8948 126.7602 0001900  77.2356 282.8985 13.12444257145572
ONEWEB-0286             
1 49076U 21075B   24215.79427618 -.00000291  00000+0 -84434-3 0  9998
2 49076  87.8945 126.7670 0002206  82.2421 277.8958 13.12445608144927
ONEWEB-0287             
1 49077U 21075C   24215.81748766 -.00000240  00000+0 -65045-3 0  9993
2 49077  87.9191 141.9461 0001991  86.0912 274.0447 13.17648524143632
ONEWEB-0288             
1 49078U 21075D   24215.78049377 -.00000597  00000+0 -16942-2 0  9998
2 49078  87.8943 126.7735 0001920  81.8798 278.2548 13.12442278145542
ONEWEB-0289             
1 49079U 21075E   24215.84657464  .00000041  00000+0  73003-4 0  9993
2 49079  87.9192 141.9684 0001956  75.9243 284.2106 13.17648107144214
ONEWEB-0290             
1 49080U 21075F   24215.82880224  .00000083  00000+0  17987-3 0  9999
2 49080  87.9190 141.9321 0001801  90.3883 269.7455 13.17649960143629
